RADUGA 1 [-]            
1 08513U 75123A   22228.72529194  .00000001  00000+0  00000+0 0  9999
2 08513   6.4001 287.7329 0008412 214.1814 148.9564  1.00264375180772
RADUGA 2 [-]            
1 09416U 76092A   22229.74354985 -.00000091  00000+0  00000+0 0  9995
2 09416   7.0603 289.6990 0025513 357.7992  20.5304  1.00298704115304
RADUGA 3 [-]            
1 10159U 77071A   22226.90030422 -.00000350  00000+0  00000+0 0  9999
2 10159   7.6821 292.3185 0009797 231.1912 230.9257  1.00226459162986
RADUGA 4 [-]            
1 10987U 78073A   22228.07089522  .00000138  00000+0  00000+0 0  9999
2 10987   8.3028 295.7966 0007284 358.2828  93.7181  1.00278505105530
RADUGA 5 [-]            
1 11343U 79035A   22229.60147529 -.00000194  00000+0  00000+0 0  9990
2 11343   8.7575 298.5214 0007380 172.8500 156.6153  1.00268215115311
RADUGA 6 [-]            
1 11708U 80016A   22229.80188264  .00000042  00000+0  00000+0 0  9990
2 11708   9.1155 301.5739 0003671 197.2452 174.3001  1.00333309108114
RADUGA 7 [-]            
1 12003U 80081A   22229.12555438 -.00000218  00000+0  00000+0 0  9993
2 12003   9.3004 303.5218 0009855 255.6491 142.4915  1.00293763109271
RADUGA 8 [-]            
1 12351U 81027A   22228.68653365 -.00000274  00000+0  00000+0 0  9990
2 12351   9.6325 304.1196 0083129 228.3484 130.6693  1.00414722108487
RADUGA 9 [-]            
1 12618U 81069A   22228.90709861  .00000092  00000+0  00000+0 0  9997
2 12618   9.8498 307.0584 0005244 155.9211 238.7203  1.00335380 33301
RADUGA 10 [-]           
1 12897U 81102A   22228.77421087 -.00000175  00000+0  00000+0 0  9993
2 12897   9.9351 308.0319 0006823 177.1330 201.0209  1.00289433103302
RADUGA 11 [-]           
1 13669U 82113A   22229.54575654 -.00000153  00000+0  00000+0 0  9996
2 13669  11.9716 321.6829 0037925 253.0096 137.6268  0.97709848107861
RADUGA 12 [-]           
1 13974U 83028A   22229.86142229 -.00000015  00000+0  00000+0 0  9991
2 13974  11.0709 317.7518 0004004 132.5931 251.7191  1.00280691155349
RADUGA 13 [-]           
1 14307U 83088A   22229.27953986 -.00000049  00000+0  00000+0 0  9990
2 14307  12.2196 323.2334 0015137  49.3918 327.6763  0.98173195105204
RADUGA 14 [-]           
1 14725U 84016A   22229.76021538 -.00000211  00000+0  00000+0 0  9990
2 14725  11.2760 321.5006 0006489 141.9648 222.8793  1.00276215104052
RADUGA 15 [-]           
1 15057U 84063A   22226.85711937 -.00000376  00000+0  00000+0 0  9999
2 15057  11.4029 322.5176 0006774 157.2240 273.9825  1.00318767127029
RADUGA 16 [-]           
1 15946U 85070A   22229.54262649  .00000071  00000+0  00000+0 0  9996
2 15946  11.8570 327.1485 0003356 154.3534 227.7289  1.00281771108194
RADUGA 17 [-]           
1 16250U 85107A   22229.29083318 -.00000289  00000+0  00000+0 0  9994
2 16250  11.9802 328.5313 0015702 178.5100 217.4923  1.00144742137652
RADUGA 18 [-]           
1 16497U 86007A   22229.33950736 -.00000014  00000+0  00000+0 0  9995
2 16497  12.7869 331.2378 0076607 165.1581 214.1793  0.98810976132036
RADUGA 19 [-]           
1 17046U 86082A   22229.43663043 -.00000025  00000+0  00000+0 0  9994
2 17046  13.2125 335.1607 0014915 147.6482 229.0372  0.98459534129139
RADUGA 20 [-]           
1 17611U 87028A   22228.15329431 -.00000164  00000+0  00000+0 0  9995
2 17611  15.2271 338.6954 0032085 136.9490 244.4945  0.95962332124855
RADUGA 21 [-]           
1 18631U 87100A   22229.53117626  .00000102  00000+0  00000+0 0  9994
2 18631  13.2988 336.0266 0004658 129.2727 255.6853  1.00283325127054
RADUGA 22 [-]           
1 19596U 88095A   22229.60633970 -.00000362  00000+0  00000+0 0  9991
2 19596  13.2798 340.3061 0008639 137.6153 196.0142  1.00233310107612
RADUGA 23 [-]           
1 19928U 89030A   22228.01208042  .00000114  00000+0  00000+0 0  9996
2 19928  13.4272 342.1367 0023172 160.5551 223.6237  1.00322252120795
RADUGA-1 1 [-]          
1 20083U 89048A   22229.73799443 -.00000143  00000+0  00000+0 0  9992
2 20083  14.1775 345.1785 0023709 115.4543 242.3535  0.98708397117450
RADUGA 24 [-]           
1 20367U 89098A   22229.60188997 -.00000026  00000+0  00000+0 0  9994
2 20367  13.9989 344.3877 0003076 131.3571 133.4011  1.00208729118936
RADUGA 25 [-]           
1 20499U 90016A   22229.29387344 -.00000306  00000+0  00000+0 0  9995
2 20499  13.7688 345.0395 0006852 139.4057 245.5763  1.00195306118870
RADUGA 26 [-]           
1 21016U 90112A   22229.59431604 -.00000017  00000+0  00000+0 0  9999
2 21016  14.0796 348.2928 0008490  96.3803 158.0961  1.00313642116227
RADUGA-1 2 [-]          
1 21038U 90116A   22228.90900833  .00000081  00000+0  00000+0 0  9996
2 21038  14.1178 348.3712 0009800 103.1543 250.1721  1.00263128 33298
RADUGA 27 [-]           
1 21132U 91014A   22229.99872892  .00000075  00000+0  00000+0 0  9995
2 21132  14.6274 347.9170 0005234 105.6038 249.9277  1.00275900115273
RADUGA 28 [-]           
1 21821U 91087A   22229.77827113 -.00000335  00000+0  00000+0 0  9992
2 21821  14.3919 351.6325 0009335 123.5095 234.0032  1.00206722112326
RADUGA 29 [-]           
1 22557U 93013A   22230.00117052  .00000115  00000+0  00000+0 0  9997
2 22557  14.5932 355.8119 0008352 116.7105 244.2147  1.00340529107666
RADUGA 30 [-]           
1 22836U 93062A   22229.59899568 -.00000127  00000+0  00000+0 0  9996
2 22836  14.6331 357.7810 0001868  62.0239 197.8626  1.00258883 31960
RADUGA-1 3 [-]          
1 22981U 94008A   22228.66797823 -.00000323  00000+0  00000+0 0  9994
2 22981  14.7109 358.9395 0005662 107.0085 198.7388  1.00252031104438
RADUGA 31 [-]           
1 23010U 94012A   22228.89506156  .00000034  00000+0  00000+0 0  9993
2 23010  14.6798 358.9353 0006920  97.4629 246.5396  1.00323808104301
RADUGA 32 [-]           
1 23448U 94087A   22229.59901056 -.00000132  00000+0  00000+0 0  9996
2 23448  14.6598   1.6391 0004956 182.6324  73.8430  1.00261306118842
RADUGA-1 4 [-]          
1 25642U 99010A   22228.96304652  .00000110  00000+0  00000+0 0  9999
2 25642  15.2165  13.2349 0000934 183.8581 151.4431  1.00294572 85904
RADUGA-1 5 [-]          
1 26477U 00049A   22230.00396094  .00000104  00000+0  00000+0 0  9992
2 26477  13.1613  18.0598 0006543  69.8360 283.3903  1.00272922 80465
RADUGA-1 6 [-]          
1 26936U 01045A   22229.90533737 -.00000069  00000+0  00000+0 0  9994
2 26936  13.3221  24.3704 0016475 158.6402  18.2268  0.97743769 74896
RADUGA-1 7 [-]          
1 28194U 04010A   22229.85466015 -.00000370  00000+0  00000+0 0  9990
2 28194  12.0380  31.2133 0002227 123.0321 247.2778  1.00247986 67375
RADUGA-1M 1 [-]         
1 32373U 07058A   22230.24979944 -.00000176  00000+0  00000+0 0  9998
2 32373   7.0279  63.6321 0004587  33.1150 316.5353  0.99400641 54416
RADUGA-1 8 [-]          
1 34264U 09010A   22230.23869400 -.00000070  00000+0  00000+0 0  9996
2 34264   9.3443  53.6304 0014627   6.5390 356.8837  0.99830018 49201
RADUGA-1M 2 [+]         
1 36358U 10002A   22229.89285257 -.00000190  00000+0  00000+0 0  9990
2 36358   0.0305 197.9733 0001926 336.2279 198.3730  1.00263651 45985
RADUGA-1M 3 [+]         
1 39375U 13062A   22229.85868519  .00000146  00000+0  00000+0 0  9995
2 39375   2.3833  89.0803 0002321 151.3397  69.8829  1.00273488 32092
